{"fetched_at":"2026-07-20T18:28:50.031Z","source":"https://celestrak.org/NORAD/elements/gp.php?GROUP=kuiper&FORMAT=JSON","constellation":"kuiper","records":[{"OBJECT_NAME":"KUIPER-00408","OBJECT_ID":"2026-098F","EPOCH":"2026-07-20T00:39:51.315264","CLASSIFICATION_TYPE":"U","MEAN_MOTION":15.25412581,"ECCENTRICITY":0.00124243,"INCLINATION":51.8721,"RA_OF_ASC_NODE":273.0086,"ARG_OF_PERICENTER":275.9374,"MEAN_ANOMALY":84.0192,"EPHEMERIS_TYPE":0,"NORAD_CAT_ID":68924,"ELEMENT_SET_NO":999,"REV_AT_EPOCH":1234,"BSTAR":0.00015954771,"MEAN_MOTION_DOT":0.00003749,"MEAN_MOTION_DDOT":0},{"OBJECT_NAME":"KUIPER-00409","OBJECT_ID":"2026-098G","EPOCH":"2026-07-20T00:00:02.000160","CLASSIFICATION_TYPE":"U","MEAN_MOTION":14.97176029,"ECCENTRICITY":0.00081328,"INCLINATION":51.8947,"RA_OF_ASC_NODE":273.4593,"ARG_OF_PERICENTER":336.7559,"MEAN_ANOMALY":352.5298,"EPHEMERIS_TYPE":0,"NORAD_CAT_ID":68925,"ELEMENT_SET_NO":999,"REV_AT_EPOCH":418,"BSTAR":-0.0021816416,"MEAN_MOTION_DOT":-0.00025676,"MEAN_MOTION_DDOT":0},{"OBJECT_NAME":"KUIPER-00410","OBJECT_ID":"2026-098H","EPOCH":"2026-07-20T06:00:04.000320","CLASSIFICATION_TYPE":"U","MEAN_MOTION":15.1909,"ECCENTRICITY":0.0014305,"INCLINATION":51.878,"RA_OF_ASC_NODE":271.9836,"ARG_OF_PERICENTER":263.7249,"MEAN_ANOMALY":226.9877,"EPHEMERIS_TYPE":0,"NORAD_CAT_ID":68926,"ELEMENT_SET_NO":999,"REV_AT_EPOCH":570,"BSTAR":-0.095267669,"MEAN_MOTION_DOT":-0.01850734,"MEAN_MOTION_DDOT":0},{"OBJECT_NAME":"KUIPER-00412","OBJECT_ID":"2026-098J","EPOCH":"2026-07-20T06:00:04.000320","CLASSIFICATION_TYPE":"U","MEAN_MOTION":15.35127184,"ECCENTRICITY":0.00036166,"INCLINATION":51.8775,"RA_OF_ASC_NODE":267.4386,"ARG_OF_PERICENTER":12.7128,"MEAN_ANOMALY":202.2496,"EPHEMERIS_TYPE":0,"NORAD_CAT_ID":68927,"ELEMENT_SET_NO":999,"REV_AT_EPOCH":301,"BSTAR":-0.031371758,"MEAN_MOTION_DOT":-0.01002596,"MEAN_MOTION_DDOT":0},{"OBJECT_NAME":"KUIPER-00413","OBJECT_ID":"2026-098K","EPOCH":"2026-07-20T06:00:04.000320","CLASSIFICATION_TYPE":"U","MEAN_MOTION":14.91093433,"ECCENTRICITY":0.00223946,"INCLINATION":51.8967,"RA_OF_ASC_NODE":274.7372,"ARG_OF_PERICENTER":272.4114,"MEAN_ANOMALY":263.9035,"EPHEMERIS_TYPE":0,"NORAD_CAT_ID":68928,"ELEMENT_SET_NO":999,"REV_AT_EPOCH":586,"BSTAR":-0.0048219144,"MEAN_MOTION_DOT":-0.00048426,"MEAN_MOTION_DDOT":0},{"OBJECT_NAME":"KUIPER-00414","OBJECT_ID":"2026-098L","EPOCH":"2026-07-19T12:54:01.904256","CLASSIFICATION_TYPE":"U","MEAN_MOTION":14.79935093,"ECCENTRICITY":0.00011999,"INCLINATION":51.8974,"RA_OF_ASC_NODE":287.7034,"ARG_OF_PERICENTER":290.7946,"MEAN_ANOMALY":69.2888,"EPHEMERIS_TYPE":0,"NORAD_CAT_ID":68929,"ELEMENT_SET_NO":999,"REV_AT_EPOCH":1209,"BSTAR":0.00020553385,"MEAN_MOTION_DOT":0.00001346,"MEAN_MOTION_DDOT":0},{"OBJECT_NAME":"KUIPER-00415","OBJECT_ID":"2026-098M","EPOCH":"2026-07-20T06:00:04.000320","CLASSIFICATION_TYPE":"U","MEAN_MOTION":15.2206538,"ECCENTRICITY":0.00078395,"INCLINATION":51.8828,"RA_OF_ASC_NODE":270.3055,"ARG_OF_PERICENTER":267.1857,"MEAN_ANOMALY":330.288,"EPHEMERIS_TYPE":0,"NORAD_CAT_ID":68930,"ELEMENT_SET_NO":999,"REV_AT_EPOCH":546,"BSTAR":-0.084557004,"MEAN_MOTION_DOT":-0.01766633,"MEAN_MOTION_DDOT":0},{"OBJECT_NAME":"KUIPER-00416","OBJECT_ID":"2026-098N","EPOCH":"2026-07-20T04:50:02.226624","CLASSIFICATION_TYPE":"U","MEAN_MOTION":15.37626884,"ECCENTRICITY":0.00017255,"INCLINATION":51.8715,"RA_OF_ASC_NODE":267.5384,"ARG_OF_PERICENTER":357.1592,"MEAN_ANOMALY":2.9385,"EPHEMERIS_TYPE":0,"NORAD_CAT_ID":68931,"ELEMENT_SET_NO":999,"REV_AT_EPOCH":1243,"BSTAR":0.00022392441,"MEAN_MOTION_DOT":0.00008017,"MEAN_MOTION_DDOT":0},{"OBJECT_NAME":"KUIPER-00420","OBJECT_ID":"2026-098P","EPOCH":"2026-07-20T04:31:43.286880","CLASSIFICATION_TYPE":"U","MEAN_MOTION":15.36816254,"ECCENTRICITY":0.00034457,"INCLINATION":51.8759,"RA_OF_ASC_NODE":268.2088,"ARG_OF_PERICENTER":341.7244,"MEAN_ANOMALY":18.3619,"EPHEMERIS_TYPE":0,"NORAD_CAT_ID":68932,"ELEMENT_SET_NO":999,"REV_AT_EPOCH":1242,"BSTAR":0.00039279807,"MEAN_MOTION_DOT":0.00013993,"MEAN_MOTION_DDOT":0},{"OBJECT_NAME":"KUIPER-00421","OBJECT_ID":"2026-098Q","EPOCH":"2026-07-19T21:48:45.661248","CLASSIFICATION_TYPE":"U","MEAN_MOTION":15.29848759,"ECCENTRICITY":0.00069643,"INCLINATION":51.8814,"RA_OF_ASC_NODE":271.5314,"ARG_OF_PERICENTER":256.4842,"MEAN_ANOMALY":103.5365,"EPHEMERIS_TYPE":0,"NORAD_CAT_ID":68933,"ELEMENT_SET_NO":999,"REV_AT_EPOCH":1235,"BSTAR":-0.0010008245,"MEAN_MOTION_DOT":-0.00029617,"MEAN_MOTION_DDOT":0},{"OBJECT_NAME":"KUIPER-00425","OBJECT_ID":"2026-098R","EPOCH":"2026-07-20T06:00:04.000320","CLASSIFICATION_TYPE":"U","MEAN_MOTION":15.02787466,"ECCENTRICITY":0.00125724,"INCLINATION":51.8935,"RA_OF_ASC_NODE":272.957,"ARG_OF_PERICENTER":268.62,"MEAN_ANOMALY":76.6466,"EPHEMERIS_TYPE":0,"NORAD_CAT_ID":68934,"ELEMENT_SET_NO":999,"REV_AT_EPOCH":567,"BSTAR":-0.089820164,"MEAN_MOTION_DOT":-0.01122932,"MEAN_MOTION_DDOT":0},{"OBJECT_NAME":"KUIPER-00430","OBJECT_ID":"2026-098S","EPOCH":"2026-07-20T06:00:04.000320","CLASSIFICATION_TYPE":"U","MEAN_MOTION":14.9051704,"ECCENTRICITY":0.00185854,"INCLINATION":51.8943,"RA_OF_ASC_NODE":274.5848,"ARG_OF_PERICENTER":268.5681,"MEAN_ANOMALY":88.1083,"EPHEMERIS_TYPE":0,"NORAD_CAT_ID":68935,"ELEMENT_SET_NO":999,"REV_AT_EPOCH":446,"BSTAR":-0.0062914497,"MEAN_MOTION_DOT":-0.00061989,"MEAN_MOTION_DDOT":0},{"OBJECT_NAME":"KUIPER-00431","OBJECT_ID":"2026-098T","EPOCH":"2026-07-20T06:00:04.000320","CLASSIFICATION_TYPE":"U","MEAN_MOTION":14.80132328,"ECCENTRICITY":0.00015835,"INCLINATION":51.8981,"RA_OF_ASC_NODE":276.9533,"ARG_OF_PERICENTER":265.9331,"MEAN_ANOMALY":249.1554,"EPHEMERIS_TYPE":0,"NORAD_CAT_ID":68936,"ELEMENT_SET_NO":999,"REV_AT_EPOCH":513,"BSTAR":-0.0077125023,"MEAN_MOTION_DOT":-0.00058784,"MEAN_MOTION_DDOT":0},{"OBJECT_NAME":"KUIPER-00432","OBJECT_ID":"2026-098U","EPOCH":"2026-07-20T06:00:04.000320","CLASSIFICATION_TYPE":"U","MEAN_MOTION":15.14694911,"ECCENTRICITY":0.00111203,"INCLINATION":51.8772,"RA_OF_ASC_NODE":271.4777,"ARG_OF_PERICENTER":268.3163,"MEAN_ANOMALY":130.7425,"EPHEMERIS_TYPE":0,"NORAD_CAT_ID":68937,"ELEMENT_SET_NO":999,"REV_AT_EPOCH":425,"BSTAR":-0.011640027,"MEAN_MOTION_DOT":-0.00212622,"MEAN_MOTION_DDOT":0},{"OBJECT_NAME":"KUIPER-00434","OBJECT_ID":"2026-098V","EPOCH":"2026-07-20T06:00:04.000320","CLASSIFICATION_TYPE":"U","MEAN_MOTION":14.9196546,"ECCENTRICITY":0.00019036,"INCLINATION":51.9093,"RA_OF_ASC_NODE":272.3634,"ARG_OF_PERICENTER":193.538,"MEAN_ANOMALY":174.2887,"EPHEMERIS_TYPE":0,"NORAD_CAT_ID":68938,"ELEMENT_SET_NO":999,"REV_AT_EPOCH":415,"BSTAR":-0.021068127,"MEAN_MOTION_DOT":-0.00209404,"MEAN_MOTION_DDOT":0},{"OBJECT_NAME":"KUIPER-00436","OBJECT_ID":"2026-098W","EPOCH":"2026-07-20T06:00:04.000320","CLASSIFICATION_TYPE":"U","MEAN_MOTION":14.96414996,"ECCENTRICITY":0.00085229,"INCLINATION":51.8899,"RA_OF_ASC_NODE":272.5117,"ARG_OF_PERICENTER":276.1251,"MEAN_ANOMALY":353.8792,"EPHEMERIS_TYPE":0,"NORAD_CAT_ID":68939,"ELEMENT_SET_NO":999,"REV_AT_EPOCH":582,"BSTAR":-0.0036451697,"MEAN_MOTION_DOT":-0.00041807,"MEAN_MOTION_DDOT":0}]}
