KUIPER-00408            
1 68924U 26098F   26201.02767726  .00003749  00000+0  15955-3 0  9992
2 68924  51.8721 273.0086 0012424 275.9374  84.0192 15.25412581 12349
KUIPER-00409            
1 68925U 26098G   26201.00002315 -.00025676  00000+0 -21816-2 0  9994
2 68925  51.8947 273.4593 0008132 336.7559 352.5298 14.97176029  4184
KUIPER-00410            
1 68926U 26098H   26201.25004630 -.01850734  00000+0 -95268-1 0  9997
2 68926  51.8780 271.9836 0014305 263.7249 226.9877 15.19090000  5702
KUIPER-00412            
1 68927U 26098J   26201.25004630 -.01002596  00000+0 -31372-1 0  9999
2 68927  51.8775 267.4386 0003616  12.7128 202.2496 15.35127184  3016
KUIPER-00413            
1 68928U 26098K   26201.25004630 -.00048426  00000+0 -48219-2 0  9990
2 68928  51.8967 274.7372 0022394 272.4114 263.9035 14.91093433  5868
KUIPER-00414            
1 68929U 26098L   26200.53752204  .00001346  00000+0  20553-3 0  9998
2 68929  51.8974 287.7034 0001199 290.7946  69.2888 14.79935093 12091
KUIPER-00415            
1 68930U 26098M   26201.25004630 -.01766633  00000+0 -84557-1 0  9995
2 68930  51.8828 270.3055 0007839 267.1857 330.2880 15.22065380  5466
KUIPER-00416            
1 68931U 26098N   26201.20141466  .00008017  00000+0  22392-3 0  9993
2 68931  51.8715 267.5384 0001725 357.1592   2.9385 15.37626884 12435
KUIPER-00420            
1 68932U 26098P   26201.18869545  .00013993  00000+0  39280-3 0  9999
2 68932  51.8759 268.2088 0003445 341.7244  18.3619 15.36816254 12428
KUIPER-00421            
1 68933U 26098Q   26200.90886182 -.00029617  00000+0 -10008-2 0  9993
2 68933  51.8814 271.5314 0006964 256.4842 103.5365 15.29848759 12359
KUIPER-00425            
1 68934U 26098R   26201.25004630 -.01122932  00000+0 -89820-1 0  9995
2 68934  51.8935 272.9570 0012572 268.6200  76.6466 15.02787466  5675
KUIPER-00430            
1 68935U 26098S   26201.25004630 -.00061989  00000+0 -62914-2 0  9995
2 68935  51.8943 274.5848 0018585 268.5681  88.1083 14.90517040  4467
KUIPER-00431            
1 68936U 26098T   26201.25004630 -.00058784  00000+0 -77125-2 0  9995
2 68936  51.8981 276.9533 0001583 265.9331 249.1554 14.80132328  5138
KUIPER-00432            
1 68937U 26098U   26201.25004630 -.00212622  00000+0 -11640-1 0  9998
2 68937  51.8772 271.4777 0011120 268.3163 130.7425 15.14694911  4258
KUIPER-00434            
1 68938U 26098V   26201.25004630 -.00209404  00000+0 -21068-1 0  9998
2 68938  51.9093 272.3634 0001903 193.5380 174.2887 14.91965460  4154
KUIPER-00436            
1 68939U 26098W   26201.25004630 -.00041807  00000+0 -36452-2 0  9994
2 68939  51.8899 272.5117 0008522 276.1251 353.8792 14.96414996  5828
